CCSDS_OMM_VERS = 2.0
CREATION_DATE  = 
ORIGINATOR     = 

OBJECT_NAME    = SL-16 R/B
OBJECT_ID      = 1998-043G
CENTER_NAME    = EARTH
REF_FRAME      = TEME
TIME_SYSTEM    = UTC
MEAN_ELEMENT_THEORY = SGP/SGP4

EPOCH          = 2026-02-23T03:18:08.996832
MEAN_MOTION    = 14.26046063
ECCENTRICITY   = .0010817
INCLINATION    = 98.8229
RA_OF_ASC_NODE = 7.4002
ARG_OF_PERICENTER = 59.6130
MEAN_ANOMALY   = 300.6117

EPHEMERIS_TYPE = 0
CLASSIFICATION_TYPE = U
NORAD_CAT_ID   = 25400
ELEMENT_SET_NO = 999
REV_AT_EPOCH   = 43691
BSTAR          = .5113E-4
MEAN_MOTION_DOT = .77E-6
MEAN_MOTION_DDOT = 0

CCSDS_OMM_VERS = 2.0
CREATION_DATE  = 
ORIGINATOR     = 

OBJECT_NAME    = SL-16 R/B
OBJECT_ID      = 1998-045B
CENTER_NAME    = EARTH
REF_FRAME      = TEME
TIME_SYSTEM    = UTC
MEAN_ELEMENT_THEORY = SGP/SGP4

EPOCH          = 2026-02-23T03:56:12.151392
MEAN_MOTION    = 14.16191356
ECCENTRICITY   = .0005977
INCLINATION    = 71.0102
RA_OF_ASC_NODE = 212.1190
ARG_OF_PERICENTER = 32.0994
MEAN_ANOMALY   = 328.0493

EPHEMERIS_TYPE = 0
CLASSIFICATION_TYPE = U
NORAD_CAT_ID   = 25407
ELEMENT_SET_NO = 999
REV_AT_EPOCH   = 42504
BSTAR          = .99458E-5
MEAN_MOTION_DOT = -.28E-6
MEAN_MOTION_DDOT = 0

CCSDS_OMM_VERS = 2.0
CREATION_DATE  = 
ORIGINATOR     = 

OBJECT_NAME    = ISS (ZARYA)
OBJECT_ID      = 1998-067A
CENTER_NAME    = EARTH
REF_FRAME      = TEME
TIME_SYSTEM    = UTC
MEAN_ELEMENT_THEORY = SGP/SGP4

EPOCH          = 2026-02-22T17:36:16.528896
MEAN_MOTION    = 15.48216789
ECCENTRICITY   = .0008481
INCLINATION    = 51.6318
RA_OF_ASC_NODE = 146.2856
ARG_OF_PERICENTER = 123.1422
MEAN_ANOMALY   = 237.0381

EPHEMERIS_TYPE = 0
CLASSIFICATION_TYPE = U
NORAD_CAT_ID   = 25544
ELEMENT_SET_NO = 999
REV_AT_EPOCH   = 55401
BSTAR          = .26931E-3
MEAN_MOTION_DOT = .14029E-3
MEAN_MOTION_DDOT = 0

CCSDS_OMM_VERS = 2.0
CREATION_DATE  = 
ORIGINATOR     = 

OBJECT_NAME    = CZ-4B R/B
OBJECT_ID      = 1999-025C
CENTER_NAME    = EARTH
REF_FRAME      = TEME
TIME_SYSTEM    = UTC
MEAN_ELEMENT_THEORY = SGP/SGP4

EPOCH          = 2026-02-23T02:59:21.833664
MEAN_MOTION    = 14.18262208
ECCENTRICITY   = .003753
INCLINATION    = 98.6659
RA_OF_ASC_NODE = 98.7491
ARG_OF_PERICENTER = 28.4022
MEAN_ANOMALY   = 352.4286

EPHEMERIS_TYPE = 0
CLASSIFICATION_TYPE = U
NORAD_CAT_ID   = 25732
ELEMENT_SET_NO = 999
REV_AT_EPOCH   = 38610
BSTAR          = .34275E-4
MEAN_MOTION_DOT = .28E-6
MEAN_MOTION_DDOT = 0

CCSDS_OMM_VERS = 2.0
CREATION_DATE  = 
ORIGINATOR     = 

OBJECT_NAME    = OKEAN-O
OBJECT_ID      = 1999-039A
CENTER_NAME    = EARTH
REF_FRAME      = TEME
TIME_SYSTEM    = UTC
MEAN_ELEMENT_THEORY = SGP/SGP4

EPOCH          = 2026-02-23T02:51:44.642880
MEAN_MOTION    = 14.80309768
ECCENTRICITY   = .0001641
INCLINATION    = 97.9476
RA_OF_ASC_NODE = 114.1566
ARG_OF_PERICENTER = 77.2661
MEAN_ANOMALY   = 282.8734

EPHEMERIS_TYPE = 0
CLASSIFICATION_TYPE = U
NORAD_CAT_ID   = 25860
ELEMENT_SET_NO = 999
REV_AT_EPOCH   = 43223
BSTAR          = .95286E-4
MEAN_MOTION_DOT = .674E-5
MEAN_MOTION_DDOT = 0

CCSDS_OMM_VERS = 2.0
CREATION_DATE  = 
ORIGINATOR     = 

OBJECT_NAME    = SL-16 R/B
OBJECT_ID      = 1999-039B
CENTER_NAME    = EARTH
REF_FRAME      = TEME
TIME_SYSTEM    = UTC
MEAN_ELEMENT_THEORY = SGP/SGP4

EPOCH          = 2026-02-23T02:42:32.863968
MEAN_MOTION    = 14.81709186
ECCENTRICITY   = .001366
INCLINATION    = 98.0000
RA_OF_ASC_NODE = 113.2289
ARG_OF_PERICENTER = 308.0661
MEAN_ANOMALY   = 51.9319

EPHEMERIS_TYPE = 0
CLASSIFICATION_TYPE = U
NORAD_CAT_ID   = 25861
ELEMENT_SET_NO = 999
REV_AT_EPOCH   = 43470
BSTAR          = .78043E-4
MEAN_MOTION_DOT = .561E-5
MEAN_MOTION_DDOT = 0

CCSDS_OMM_VERS = 2.0
CREATION_DATE  = 
ORIGINATOR     = 

OBJECT_NAME    = DELTA 2 R/B
OBJECT_ID      = 1999-041E
CENTER_NAME    = EARTH
REF_FRAME      = TEME
TIME_SYSTEM    = UTC
MEAN_ELEMENT_THEORY = SGP/SGP4

EPOCH          = 2026-02-23T05:05:43.810368
MEAN_MOTION    = 14.11782240
ECCENTRICITY   = .0502202
INCLINATION    = 51.7661
RA_OF_ASC_NODE = 359.0979
ARG_OF_PERICENTER = 305.6827
MEAN_ANOMALY   = 49.8336

EPHEMERIS_TYPE = 0
CLASSIFICATION_TYPE = U
NORAD_CAT_ID   = 25876
ELEMENT_SET_NO = 999
REV_AT_EPOCH   = 36098
BSTAR          = .33231E-3
MEAN_MOTION_DOT = .1832E-4
MEAN_MOTION_DDOT = 0

CCSDS_OMM_VERS = 2.0
CREATION_DATE  = 
ORIGINATOR     = 

OBJECT_NAME    = HELIOS 1B
OBJECT_ID      = 1999-064A
CENTER_NAME    = EARTH
REF_FRAME      = TEME
TIME_SYSTEM    = UTC
MEAN_ELEMENT_THEORY = SGP/SGP4

EPOCH          = 2026-02-23T04:27:15.663744
MEAN_MOTION    = 14.87632669
ECCENTRICITY   = .0002462
INCLINATION    = 98.1711
RA_OF_ASC_NODE = 316.0018
ARG_OF_PERICENTER = 94.5514
MEAN_ANOMALY   = 265.5983

EPHEMERIS_TYPE = 0
CLASSIFICATION_TYPE = U
NORAD_CAT_ID   = 25977
ELEMENT_SET_NO = 999
REV_AT_EPOCH   = 68310
BSTAR          = .20483E-3
MEAN_MOTION_DOT = .1805E-4
MEAN_MOTION_DDOT = 0

CCSDS_OMM_VERS = 2.0
CREATION_DATE  = 
ORIGINATOR     = 

OBJECT_NAME    = TERRA
OBJECT_ID      = 1999-068A
CENTER_NAME    = EARTH
REF_FRAME      = TEME
TIME_SYSTEM    = UTC
MEAN_ELEMENT_THEORY = SGP/SGP4

EPOCH          = 2026-02-23T04:46:28.264800
MEAN_MOTION    = 14.60997660
ECCENTRICITY   = .0001676
INCLINATION    = 97.9626
RA_OF_ASC_NODE = 108.1850
ARG_OF_PERICENTER = 190.8956
MEAN_ANOMALY   = 245.6085

EPHEMERIS_TYPE = 0
CLASSIFICATION_TYPE = U
NORAD_CAT_ID   = 25994
ELEMENT_SET_NO = 999
REV_AT_EPOCH   = 39296
BSTAR          = .10035E-3
MEAN_MOTION_DOT = .448E-5
MEAN_MOTION_DDOT = 0

CCSDS_OMM_VERS = 2.0
CREATION_DATE  = 
ORIGINATOR     = 

OBJECT_NAME    = SL-16 R/B
OBJECT_ID      = 2000-006B
CENTER_NAME    = EARTH
REF_FRAME      = TEME
TIME_SYSTEM    = UTC
MEAN_ELEMENT_THEORY = SGP/SGP4

EPOCH          = 2026-02-23T04:12:57.914784
MEAN_MOTION    = 14.15819324
ECCENTRICITY   = .0017689
INCLINATION    = 71.0021
RA_OF_ASC_NODE = 128.3569
ARG_OF_PERICENTER = 210.1807
MEAN_ANOMALY   = 149.8298

EPHEMERIS_TYPE = 0
CLASSIFICATION_TYPE = U
NORAD_CAT_ID   = 26070
ELEMENT_SET_NO = 999
REV_AT_EPOCH   = 34650
BSTAR          = .1174E-3
MEAN_MOTION_DOT = .183E-5
MEAN_MOTION_DDOT = 0

CCSDS_OMM_VERS = 2.0
CREATION_DATE  = 
ORIGINATOR     = 

OBJECT_NAME    = TITAN 4B R/B
OBJECT_ID      = 2000-047B
CENTER_NAME    = EARTH
REF_FRAME      = TEME
TIME_SYSTEM    = UTC
MEAN_ELEMENT_THEORY = SGP/SGP4

EPOCH          = 2026-02-23T04:26:48.990336
MEAN_MOTION    = 15.09416987
ECCENTRICITY   = .003773
INCLINATION    = 67.9882
RA_OF_ASC_NODE = 81.2930
ARG_OF_PERICENTER = 52.8579
MEAN_ANOMALY   = 307.6007

EPHEMERIS_TYPE = 0
CLASSIFICATION_TYPE = U
NORAD_CAT_ID   = 26474
ELEMENT_SET_NO = 999
REV_AT_EPOCH   = 39072
BSTAR          = .23405E-3
MEAN_MOTION_DOT = .3678E-4
MEAN_MOTION_DDOT = 0

CCSDS_OMM_VERS = 2.0
CREATION_DATE  = 
ORIGINATOR     = 

OBJECT_NAME    = ENVISAT
OBJECT_ID      = 2002-009A
CENTER_NAME    = EARTH
REF_FRAME      = TEME
TIME_SYSTEM    = UTC
MEAN_ELEMENT_THEORY = SGP/SGP4

EPOCH          = 2026-02-22T20:42:11.642400
MEAN_MOTION    = 14.39030798
ECCENTRICITY   = .00013533
INCLINATION    = 98.3702
RA_OF_ASC_NODE = 7.8154
ARG_OF_PERICENTER = 86.5125
MEAN_ANOMALY   = 289.3797

EPHEMERIS_TYPE = 0
CLASSIFICATION_TYPE = U
NORAD_CAT_ID   = 27386
ELEMENT_SET_NO = 999
REV_AT_EPOCH   = 25704
BSTAR          = .55327064E-4
MEAN_MOTION_DOT = .128E-5
MEAN_MOTION_DDOT = 0

