SL-16 R/B               
1 25400U 98043G   26054.13760413  .00000077  00000+0  51130-4 0  9994
2 25400  98.8229   7.4002 0010817  59.6130 300.6117 14.26046063436918
SL-16 R/B               
1 25407U 98045B   26054.16402953 -.00000028  00000+0  99458-5 0  9991
2 25407  71.0102 212.1190 0005977  32.0994 328.0493 14.16191356425043
ISS (ZARYA)             
1 25544U 98067A   26053.73352464  .00014029  00000+0  26931-3 0  9999
2 25544  51.6318 146.2856 0008481 123.1422 237.0381 15.48216789554014
CZ-4B R/B               
1 25732U 99025C   26054.12455826  .00000028  00000+0  34275-4 0  9998
2 25732  98.6659  98.7491 0037530  28.4022 352.4286 14.18262208386100
OKEAN-O                 
1 25860U 99039A   26054.11926670  .00000674  00000+0  95286-4 0  9990
2 25860  97.9476 114.1566 0001641  77.2661 282.8734 14.80309768432234
SL-16 R/B               
1 25861U 99039B   26054.11288037  .00000561  00000+0  78043-4 0  9996
2 25861  98.0000 113.2289 0013660 308.0661  51.9319 14.81709186434708
DELTA 2 R/B             
1 25876U 99041E   26054.21231262  .00001832  00000+0  33231-3 0  9995
2 25876  51.7661 359.0979 0502202 305.6827  49.8336 14.11782240360989
HELIOS 1B               
1 25977U 99064A   26054.18559796  .00001805  00000+0  20483-3 0  9998
2 25977  98.1711 316.0018 0002462  94.5514 265.5983 14.87632669683108
TERRA                   
1 25994U 99068A   26054.19893825  .00000448  00000+0  10035-3 0  9990
2 25994  97.9626 108.1850 0001676 190.8956 245.6085 14.60997660392968
SL-16 R/B               
1 26070U 00006B   26054.17567031  .00000183  00000+0  11740-3 0  9995
2 26070  71.0021 128.3569 0017689 210.1807 149.8298 14.15819324346509
TITAN 4B R/B            
1 26474U 00047B   26054.18528924  .00003678  00000+0  23405-3 0  9990
2 26474  67.9882  81.2930 0037730  52.8579 307.6007 15.09416987390728
ENVISAT                 
1 27386U 02009A   26053.86263475  .00000128  00000+0  55327-4 0  9990
2 27386  98.3702   7.8154 0001353  86.5125 289.3797 14.39030798257048
